{
  "type": "FeatureCollection",
  "features": [
    {
      "type": "Feature",
      "properties": {
        "norad_id": 41581,
        "name": "INTELSAT 31 (IS-31)",
        "group": "intelsat",
        "lat": 0.0023742596247232567,
        "lon": 117.04521929443847,
        "alt_km": 35788.166167929965,
        "timestamp": "2025-12-08T08:59:00.439987+00:00",
        "meta_object_name": "INTELSAT 31 (IS-31)",
        "meta_object_id": "2016-035A",
        "meta_epoch": "2025-12-07T21:44:34.424736",
        "meta_mean_motion": 1.00270098,
        "meta_eccentricity": 0.00020601,
        "meta_inclination": 0.0206,
        "meta_ra_of_asc_node": 269.6153,
        "meta_arg_of_pericenter": 307.7173,
        "meta_mean_anomaly": 90.6739,
        "meta_ephemeris_type": 0,
        "meta_classification_type": "U",
        "meta_norad_cat_id": 41581,
        "meta_element_set_no": 999,
        "meta_rev_at_epoch": 3476,
        "meta_bstar": 0,
        "meta_mean_motion_dot": -1.47e-06,
        "meta_mean_motion_ddot": 0,
        "tle_line1": "1 41581U 16035A   25341.90595399 -.00000147  00000+0  00000+0 0  9999",
        "tle_line2": "2 41581   0.0206 269.6153 0002060 307.7173  90.6739  1.00270098 34768"
      },
      "geometry": {
        "type": "Point",
        "coordinates": [
          117.04521929443847,
          0.0023742596247232567
        ]
      }
    },
    {
      "type": "Feature",
      "properties": {
        "norad_id": 41747,
        "name": "INTELSAT 36 (IS-36)",
        "group": "intelsat",
        "lat": -0.030109722327679334,
        "lon": -79.36271035010749,
        "alt_km": 35777.39234118988,
        "timestamp": "2025-12-08T08:59:00.440000+00:00",
        "meta_object_name": "INTELSAT 36 (IS-36)",
        "meta_object_id": "2016-053A",
        "meta_epoch": "2025-12-07T22:41:38.510304",
        "meta_mean_motion": 1.00278743,
        "meta_eccentricity": 0.00017287,
        "meta_inclination": 0.0105,
        "meta_ra_of_asc_node": 350.0419,
        "meta_arg_of_pericenter": 313.3689,
        "meta_mean_anomaly": 182.4646,
        "meta_ephemeris_type": 0,
        "meta_classification_type": "U",
        "meta_norad_cat_id": 41747,
        "meta_element_set_no": 999,
        "meta_rev_at_epoch": 3403,
        "meta_bstar": 0,
        "meta_mean_motion_dot": -2.3e-07,
        "meta_mean_motion_ddot": 0,
        "tle_line1": "1 41747U 16053A   25341.94558461 -.00000023  00000+0  00000+0 0  9999",
        "tle_line2": "2 41747   0.0105 350.0419 0001728 313.3689 182.4646  1.00278743 34037"
      },
      "geometry": {
        "type": "Point",
        "coordinates": [
          -79.36271035010749,
          -0.030109722327679334
        ]
      }
    },
    {
      "type": "Feature",
      "properties": {
        "norad_id": 41945,
        "name": "INTELSAT 32E (IS-32E)",
        "group": "intelsat",
        "lat": 0.02207687611332888,
        "lon": 168.95023861313223,
        "alt_km": 35787.01344346455,
        "timestamp": "2025-12-08T08:59:00.440012+00:00",
        "meta_object_name": "INTELSAT 32E (IS-32E)",
        "meta_object_id": "2017-007B",
        "meta_epoch": "2025-12-07T18:33:56.052288",
        "meta_mean_motion": 1.00270605,
        "meta_eccentricity": 1.567e-05,
        "meta_inclination": 0.0292,
        "meta_ra_of_asc_node": 69.0658,
        "meta_arg_of_pericenter": 245.4266,
        "meta_mean_anomaly": 357.6063,
        "meta_ephemeris_type": 0,
        "meta_classification_type": "U",
        "meta_norad_cat_id": 41945,
        "meta_element_set_no": 999,
        "meta_rev_at_epoch": 3230,
        "meta_bstar": 0,
        "meta_mean_motion_dot": -2.66e-06,
        "meta_mean_motion_ddot": 0,
        "tle_line1": "1 41945U 17007B   25341.77356542 -.00000266  00000+0  00000+0 0  9995",
        "tle_line2": "2 41945   0.0292  69.0658 0000156 245.4266 357.6063  1.00270605 32302"
      },
      "geometry": {
        "type": "Point",
        "coordinates": [
          168.95023861313223,
          0.02207687611332888
        ]
      }
    },
    {
      "type": "Feature",
      "properties": {
        "norad_id": 42818,
        "name": "INTELSAT 35E (IS-35E)",
        "group": "intelsat",
        "lat": -0.017700961871606854,
        "lon": 177.6068004925706,
        "alt_km": 35786.04405716703,
        "timestamp": "2025-12-08T08:59:00.440024+00:00",
        "meta_object_name": "INTELSAT 35E (IS-35E)",
        "meta_object_id": "2017-041A",
        "meta_epoch": "2025-12-07T22:01:53.922144",
        "meta_mean_motion": 1.0026945,
        "meta_eccentricity": 0.00023727,
        "meta_inclination": 0.0168,
        "meta_ra_of_asc_node": 323.2068,
        "meta_arg_of_pericenter": 300.2456,
        "meta_mean_anomaly": 109.4639,
        "meta_ephemeris_type": 0,
        "meta_classification_type": "U",
        "meta_norad_cat_id": 42818,
        "meta_element_set_no": 999,
        "meta_rev_at_epoch": 3089,
        "meta_bstar": 0,
        "meta_mean_motion_dot": -2.35e-06,
        "meta_mean_motion_ddot": 0,
        "tle_line1": "1 42818U 17041A   25341.91798521 -.00000235  00000+0  00000+0 0  9992",
        "tle_line2": "2 42818   0.0168 323.2068 0002372 300.2456 109.4639  1.00269450 30897"
      },
      "geometry": {
        "type": "Point",
        "coordinates": [
          177.6068004925706,
          -0.017700961871606854
        ]
      }
    },
    {
      "type": "Feature",
      "properties": {
        "norad_id": 42950,
        "name": "INTELSAT 37E (IS-37E)",
        "group": "intelsat",
        "lat": -0.016194789721171315,
        "lon": -165.90459946185396,
        "alt_km": 35778.945991252695,
        "timestamp": "2025-12-08T08:59:00.440036+00:00",
        "meta_object_name": "INTELSAT 37E (IS-37E)",
        "meta_object_id": "2017-059A",
        "meta_epoch": "2025-12-07T22:06:38.467584",
        "meta_mean_motion": 1.00270728,
        "meta_eccentricity": 0.00034352,
        "meta_inclination": 0.0159,
        "meta_ra_of_asc_node": 353.8657,
        "meta_arg_of_pericenter": 259.3833,
        "meta_mean_anomaly": 137.3493,
        "meta_ephemeris_type": 0,
        "meta_classification_type": "U",
        "meta_norad_cat_id": 42950,
        "meta_element_set_no": 999,
        "meta_rev_at_epoch": 3014,
        "meta_bstar": 0,
        "meta_mean_motion_dot": -1.38e-06,
        "meta_mean_motion_ddot": 0,
        "tle_line1": "1 42950U 17059A   25341.92127856 -.00000138  00000+0  00000+0 0  9998",
        "tle_line2": "2 42950   0.0159 353.8657 0003435 259.3833 137.3493  1.00270728 30147"
      },
      "geometry": {
        "type": "Point",
        "coordinates": [
          -165.90459946185396,
          -0.016194789721171315
        ]
      }
    },
    {
      "type": "Feature",
      "properties": {
        "norad_id": 43632,
        "name": "AZERSPACE 2 (IS-38)",
        "group": "intelsat",
        "lat": -0.038964956769626885,
        "lon": -102.75837395390431,
        "alt_km": 35779.853832557885,
        "timestamp": "2025-12-08T08:59:00.440047+00:00",
        "meta_object_name": "AZERSPACE 2 (IS-38)",
        "meta_object_id": "2018-074A",
        "meta_epoch": "2025-12-07T22:07:21.467136",
        "meta_mean_motion": 1.00269637,
        "meta_eccentricity": 0.00016016,
        "meta_inclination": 0.0179,
        "meta_ra_of_asc_node": 330.569,
        "meta_arg_of_pericenter": 285.7075,
        "meta_mean_anomaly": 197.615,
        "meta_ephemeris_type": 0,
        "meta_classification_type": "U",
        "meta_norad_cat_id": 43632,
        "meta_element_set_no": 999,
        "meta_rev_at_epoch": 2653,
        "meta_bstar": 0,
        "meta_mean_motion_dot": 1.4e-06,
        "meta_mean_motion_ddot": 0,
        "tle_line1": "1 43632U 18074A   25341.92177624  .00000140  00000+0  00000+0 0  9994",
        "tle_line2": "2 43632   0.0179 330.5690 0001601 285.7075 197.6150  1.00269637 26534"
      },
      "geometry": {
        "type": "Point",
        "coordinates": [
          -102.75837395390431,
          -0.038964956769626885
        ]
      }
    },
    {
      "type": "Feature",
      "properties": {
        "norad_id": 43633,
        "name": "HORIZONS-3E",
        "group": "intelsat",
        "lat": 0.02013691326647649,
        "lon": 21.15701418661457,
        "alt_km": 35788.159737289716,
        "timestamp": "2025-12-08T08:59:00.440059+00:00",
        "meta_object_name": "HORIZONS-3E",
        "meta_object_id": "2018-074B",
        "meta_epoch": "2025-12-07T21:17:14.543232",
        "meta_mean_motion": 1.00268652,
        "meta_eccentricity": 0.00012198,
        "meta_inclination": 0.0424,
        "meta_ra_of_asc_node": 181.1196,
        "meta_arg_of_pericenter": 96.5634,
        "meta_mean_anomaly": 287.5494,
        "meta_ephemeris_type": 0,
        "meta_classification_type": "U",
        "meta_norad_cat_id": 43633,
        "meta_element_set_no": 999,
        "meta_rev_at_epoch": 2642,
        "meta_bstar": 0,
        "meta_mean_motion_dot": -2.8e-07,
        "meta_mean_motion_ddot": 0,
        "tle_line1": "1 43633U 18074B   25341.88697388 -.00000028  00000+0  00000+0 0  9990",
        "tle_line2": "2 43633   0.0424 181.1196 0001219  96.5634 287.5494  1.00268652 26427"
      },
      "geometry": {
        "type": "Point",
        "coordinates": [
          21.15701418661457,
          0.02013691326647649
        ]
      }
    }
  ]
}